{
  "norad_id": 68055,
  "name": "STARLINK-35998",
  "history": [
    {
      "epoch": "2026-03-28T15:22:08.253120Z",
      "apogee_km": 345.070134189069,
      "perigee_km": 342.24832413206786,
      "latitude_deg": -2.091352365235942e-08,
      "longitude_deg": -89.26990456691604,
      "height_km": 344.9540932874058,
      "semi_major_axis_km": 6721.796229160568,
      "eccentricity": 0.0002099,
      "inclination_deg": 53.1581,
      "raan_deg": 327.3224,
      "arg_perigee_deg": 105.6472,
      "mean_anomaly_deg": 254.478,
      "mean_motion_rev_day": 15.75341623
    },
    {
      "epoch": "2026-03-29T02:01:40.735200Z",
      "apogee_km": 344.11888786627696,
      "perigee_km": 343.206067497209,
      "latitude_deg": 4.333050094907776e-05,
      "longitude_deg": 108.19993512190025,
      "height_km": 344.1248730693333,
      "semi_major_axis_km": 6721.799477681743,
      "eccentricity": 6.79e-05,
      "inclination_deg": 53.1582,
      "raan_deg": 325.1153,
      "arg_perigee_deg": 355.0588,
      "mean_anomaly_deg": 5.0426,
      "mean_motion_rev_day": 15.75340481
    },
    {
      "epoch": "2026-03-30T02:23:28.503744Z",
      "apogee_km": 344.3751434309852,
      "perigee_km": 343.22165931610925,
      "latitude_deg": 3.621755265253341e-05,
      "longitude_deg": 96.70393089639076,
      "height_km": 344.37426306497684,
      "semi_major_axis_km": 6721.935401373547,
      "eccentricity": 8.58e-05,
      "inclination_deg": 53.1588,
      "raan_deg": 320.0689,
      "arg_perigee_deg": 53.8326,
      "mean_anomaly_deg": 306.2774,
      "mean_motion_rev_day": 15.75292699
    },
    {
      "epoch": "2026-03-30T05:26:12.440832Z",
      "apogee_km": 344.94484846811247,
      "perigee_km": 342.75401864968717,
      "latitude_deg": 1.6071112338003295e-06,
      "longitude_deg": 50.266758253544644,
      "height_km": 343.8258245118746,
      "semi_major_axis_km": 6721.9864335589,
      "eccentricity": 0.00016296,
      "inclination_deg": 53.1592,
      "raan_deg": 319.4399,
      "arg_perigee_deg": 30.9243,
      "mean_anomaly_deg": 329.1873,
      "mean_motion_rev_day": 15.7527476
    },
    {
      "epoch": "2026-03-30T08:28:55.882848Z",
      "apogee_km": 344.5409876517497,
      "perigee_km": 343.1174096501991,
      "latitude_deg": -2.2384775401453093e-05,
      "longitude_deg": 3.8284619691675665,
      "height_km": 344.36071174622083,
      "semi_major_axis_km": 6721.966198650975,
      "eccentricity": 0.00010589,
      "inclination_deg": 53.1585,
      "raan_deg": 318.8077,
      "arg_perigee_deg": 57.3108,
      "mean_anomaly_deg": 302.8014,
      "mean_motion_rev_day": 15.75281873
    },
    {
      "epoch": "2026-03-30T22:11:11.073408Z",
      "apogee_km": 344.32851794893577,
      "perigee_km": 343.1664385603344,
      "latitude_deg": 1.5239599897568708e-05,
      "longitude_deg": 154.86488435938105,
      "height_km": 344.2817590683212,
      "semi_major_axis_km": 6721.884478254635,
      "eccentricity": 8.644e-05,
      "inclination_deg": 53.1585,
      "raan_deg": 315.9702,
      "arg_perigee_deg": 48.8983,
      "mean_anomaly_deg": 311.2112,
      "mean_motion_rev_day": 15.753106
    }
  ]
}